#dP2022  4  4  0  0  0.00000000      96 __u+U ITR14 FIT  IAC
## 2204  86400.00000000   900.00000000 59673 0.0000000000000
+  125   C01C02C03C04C05C06C07C08C09C10C11C12C13C14C16C19C20
+        C21C22C23C24C25C26C27C28C29C30C32C33C34C35C36C37C38
+        C39C40C41C42C43C44C45C46C60E01E02E03E04E05E07E08E09
+        E10E11E12E13E14E15E18E19E21E24E25E26E27E30E31E33E34
+        E36G01G02G03G04G05G06G07G08G09G10G12G13G14G15G16G17
+        G18G19G20G21G22G23G24G25G26G27G28G29G30G31G32J02J03
+        R01R02R03R04R05R06R07R08R09R10R11R12R13R14R15R17R18
+        R19R20R21R22R23R24  0  0  0  0  0  0  0  0  0  0  0
++        15 14 14 15 15  9  9  9  9  9  8  8  9  9  9  7  7
++         7  7  7  7  7  7  7  7  7  7  7  8  7  7  7  7  8
++         8  8  8  7  7  7  7  7 14  4  4  4  5  4  4  4  5
++         5  5  5  4  4  4  4  5  4  4  4  4  5  4  5  5  5
++         5  4  4  3  3  4  3  4  4  3  4  4  4  4  4  4  4
++         4  4  4  4  4  4  4  4  4  4  5  4  4  4  4  8  8
++         7  6  6  6  6 13  6  6  6 13  7  6  7  6  6  6  6
++         7  7  6  8 13  6  0  0  0  0  0  0  0  0  0  0  0
%c M  cc GPS ccc cccc cccc cccc cccc ccccc ccccc ccccc ccccc
%c cc cc ccc ccc cccc cccc cccc cccc ccccc ccccc ccccc ccccc
%f  0.0000000  0.000000000  0.00000000000  0.000000000000000
%f  0.0000000  0.000000000  0.00000000000  0.000000000000000
%i    0    0    0    0      0      0      0      0         0
%i    0    0    0    0      0      0      0      0         0
/* INFORMATION & ANALYSIS CENTER (IAC)            RAPID DATA
/* S/V CLOCKS ARE ALIGNED TO GNSS TIME                      
/* G:C1WC2W R:C1PC2P E:C1XC5X C:C2IC6I J:C1CC2S             
/* PCV:IGS14_2196 OL/AL:FES2004  NONE     YN ORB:CoN CLK:CoN
*  2022 04 04  8 45  0.00000000
PC01 -34292.035098  24538.890137    277.042027     45.446979
PC02   4292.951992  41890.289652   -793.840591    161.057737
PC03 -14775.690110  39450.983693    122.193128   -563.778549
PC04 -39614.114495  14447.272333    523.813045   -186.166788
PC05  21885.482315  35959.924919   -698.905433   -274.776716
PC06  -4259.932915  25692.770449 -33113.162434   -268.180202
PC07 -18591.005513  32053.686222  19979.106127     50.181118
PC08  -7183.373302  40096.936238  11163.915896    238.458988
PC09   6955.671997  29843.112308 -28381.460116   -665.303408
PC10 -10220.590626  32042.706465  25405.114908    137.234776
PC11 -13937.903945 -19640.707307 -14013.994947    270.700209
PC12   4355.601991 -15106.853004 -23021.033190   -631.195076
PC13   -970.078127  42258.264543   1871.048081    -70.456354
PC14  -4388.286919 -15605.635359  22747.121462    454.733737
PC16  -5987.524795  24158.822218 -33831.237056    113.841434
PC19  14176.788468   9408.088057 -22090.659184    881.062525
PC20  -4139.941597  18517.923997 -20430.054574   -866.514911
PC21  21180.791779 -17047.067025   6368.598846    -51.575539
PC22  25056.807062  -5476.136159 -11024.779581   -964.913956
PC23 -16268.786162   -722.693528 -22662.230385   -935.885383
PC24   1141.724812 -27847.961961   1073.359307   -950.694589
PC25 -11788.658641 -19466.406599 -16145.581478   -756.034140
PC26  11122.235288 -20075.179818  15838.658917    756.621152
PC27 -13539.445455   9815.912091  22322.190662    702.471214
PC28 -24546.928638  -5008.249655  12296.246525     51.301070
PC29  21849.421723  16485.536317   5411.097383    536.721342
PC30   5381.712032  18803.091095  19887.080553    496.348241
PC32 -21078.675113  17159.797107  -6272.349503   -964.621469
PC33 -14141.393893  -9455.841313  22129.397133   -970.629502
PC34  -6405.637592 -19065.923296 -19368.127645   -433.274643
PC35  24935.688111   4789.252924 -11542.350014    213.043268
PC36  11085.802705  20171.179784  15800.890671   -965.073204
PC37 -12098.677726  18893.814015 -16598.318810   -929.187670
PC38 -11380.584839  36832.842729  17266.176872    222.721460
PC39 -12043.998033  20860.436388 -34583.702167     34.921712
PC40 -25543.269143  26988.059623  19742.078280    257.963612
PC41 -24937.687456   5121.865605  11484.123001   -969.529816
PC42   5157.086893 -18851.152036  19976.983113   -946.042926
PC43 -21394.211610 -16892.493199  -6051.789965   -932.025989
PC44  13388.817670 -10311.541747 -22213.059387    616.668834
PC45  16152.342236    431.258098  22749.775649    722.356983
PC46   -156.625621  27924.573835    315.024855   -253.606575
PC60   7313.284194  41492.910440   1280.406425     -0.527104
PE01 -20670.258236  11899.531731 -17540.430624   -609.769653
PE02  20661.093704 -12042.533183  17424.329550    290.617292
PE03  28405.731147  -4875.557813   6777.569858   -544.414826
PE04 -14494.213041  14907.640204 -21056.760525   -999.116216
PE05  25878.168336   8228.025355 -11774.752540   -194.061502
PE07  -8326.907616 -16366.061302  23224.687836   -655.146421
PE08  14091.817351 -14952.932872  21317.126938   -506.517583
PE09   8628.979953  16148.815616 -23251.996009   -472.447045
PE10   3423.337225  25090.840635  15316.506815   -504.573606
PE11  11206.557616  26717.185601   5997.661344   4052.757581
PE12  -4740.748167  19638.296003  21623.810851   4679.984025
PE13 -10830.275299 -26733.715068  -6676.058537    427.783165
PE14 -19014.174543 -15040.987680 -13671.950784  -1801.959210
PE15   4726.674445 -19532.577729 -21731.189905    753.739501
PE18  29321.810613   5530.598231   -467.744719  -1604.968780
PE19 -29083.634845   3179.604722  -4497.766763  -2441.045990
PE21 -14920.424413  -7434.556717 -24465.764624   -726.455121
PE24   -823.421669  24323.512430  16848.277374   -542.212795
PE25  14759.668394   7718.291261  24469.296622   -569.179681
PE26 -20103.443640 -17426.750828  12985.321194   -990.489324
PE27   -298.785204 -23683.149024 -17748.160929   -268.441013
PE30  15065.663503 -25466.573032    337.103558   -403.019961
PE31 -14380.545670  25868.627203    643.739219   -494.541630
PE33 -17441.359964    826.055149  23909.050672   -457.937434
PE34  17346.534953  -1091.668077 -23964.864436   -510.283462
PE36  19912.809131  18180.046858 -12191.755013   -354.815906
PG01 -16053.274417  -3140.085640  20719.244235    392.977660
PG02  14944.706837  21078.756389  -5147.257331   -652.897498
PG03 -19545.984663   7767.834597  16045.372204   -192.529837
PG04 -26045.145401   -297.910354  -5413.045252   -178.653098
PG05  13180.354981   7845.363620 -21849.329640    -77.078608
PG06   4416.510537  24805.963184   8339.062727    254.548271
PG07  -9503.318674  14073.932494 -19904.544644    319.018446
PG08 -25625.403039  -5997.009819  -4832.968940    -62.526391
PG09 -20526.785487   8356.046234 -14725.404823   -345.876824
PG10   9933.854492 -22980.345961   8562.898335   -367.999371
PG12  19059.428911  -3168.826984  17898.821860   -195.125978
PG13  20302.496910  13274.524893 -11163.676234    288.215671
PG14 -11635.559421  22626.090756   7473.445286    -99.850658
PG15  26185.542334   3345.714219  -4613.241504    -71.599822
PG16  -8981.201646 -12465.058182 -21897.014503   -488.091995
PG17  -4963.617072  14288.096877  22267.912860    595.940107
PG18   9470.463599 -13979.595562 -20479.399496    203.914047
PG19   3460.829865  15415.708117  21123.057309    139.871925
PG20   6945.658373  16887.988993 -19360.979838    515.987960
PG21 -18614.345775 -12824.772383  15114.233930    160.117015
PG22  -6646.753486 -16041.268379  20557.598796    237.971465
PG23  16673.892752 -20453.544329  -2518.792934    -12.300662
PG24  18336.413002   6580.535495  17931.359920    260.906107
PG25  19234.007782 -15870.938059   8444.028683    307.408485
PG26   -306.317336 -20922.721444 -16263.976215    196.032334
PG27 -18440.848591 -12518.137242 -14949.137502    174.224019
PG28  -5127.188210  21434.549086  15501.549535    373.959631
PG29  21973.341682  -5200.836114 -14084.296333   -499.180513
PG30  -3466.019106  21326.537375 -15208.500799   -522.138657
PG31  -5738.657176 -25052.542654   5512.960047   -171.921487
PG32   1018.393361 -15319.858504  21815.467621    -98.284220
PJ02 -25754.227347  32104.547201  -4751.638378     -2.462020
PJ03 -26676.317894  21952.016471  29241.335059     -1.346876
PR01 -23776.296630   9181.081617   -813.511755      7.562632
PR02 -11965.202639  13099.064812 -18306.992601    514.517547
PR03   6479.043927   9234.781310 -22823.881428     54.305708
PR04  20910.025207    138.451243 -14569.547032    135.041909
PR05  23847.606444  -8851.065565   1758.371143     90.554178
PR06  10414.751678 -13572.340047  18908.536676    -41.264915
PR07  -7321.575841  -8931.012885  22792.052546     33.448182
PR08 -21005.771272   -128.500964  14550.170613    -64.424335
PR09   5981.605314 -24613.515070   3339.230478     47.947753
PR10  -2081.264813 -22139.196501 -12441.641340    -81.213875
PR11  -9652.051653  -6796.015965 -22606.496538     41.966197
PR12 -11519.526432  13167.705467 -18551.176847     17.756039
PR13  -6558.288259  24224.033500  -4594.967229    -20.378997
PR14   2712.274106  21402.946087  13605.037087     76.146641
PR15   9929.607909   6058.544596  22715.900348     97.079206
PR17  14576.872002  18633.463792   9584.771640    514.800770
PR18  20210.135292  13704.404664  -7259.249992    112.456366
PR19  15860.851706   2914.490279 -19763.386172   -184.088669
PR20    494.655012 -12932.617852 -21984.801674    -67.975206
PR21 -15368.449822 -18616.940529  -8214.265205   -290.630365
PR22 -20190.953438 -13415.554249   8091.857594   -174.758254
PR23 -12280.524015   2261.583766  22235.346221    -35.935821
PR24     85.783854  13654.564904  21561.712371     87.488942
EOF
